NORAD_CAT_ID,OBJECT_NAME,OBJECT_TYPE,EPOCH,MEAN_MOTION,ECCENTRICITY,INCLINATION,RA_OF_ASC_NODE,ARG_OF_PERICENTER,MEAN_ANOMALY,BSTAR,MEAN_MOTION_DOT,MEAN_MOTION_DDOT,TLE_LINE0,TLE_LINE1,TLE_LINE2,SEMIMAJOR_AXIS,PERIOD,APOGEE,PERIGEE,DECAYED
53736.0,STARLINK-4652,PAYLOAD,2023-04-14 01:43:21,15.08852074,0.0001085,53.2162,335.6121,82.6474,277.4641,0.00038657,5.872e-05,0.0,0 STARLINK-4652,1 53736U 22107AN  23104.07177992  .00005872  00000-0  38657-3 0  9992,2 53736  53.2162 335.6121 0001085  82.6474 277.4641 15.08852074 34469,6917.843,95.437,540.459,538.958,0.0
53736.0,STARLINK-4652,PAYLOAD,2023-04-15 14:17:13,15.08836866,0.0001755,53.2156,328.7725,81.3441,278.7749,-0.00012482,-2.274e-05,0.0,0 STARLINK-4652,1 53736U 22107AN  23105.59529901 -.00002274  00000-0 -12482-3 0  9994,2 53736  53.2156 328.7725 0001755  81.3441 278.7749 15.08836866 34069,6917.89,95.438,540.969,538.541,0.0
53736.0,STARLINK-4652,PAYLOAD,2023-04-15 20:38:46,15.08834964,0.0001252,53.2155,327.583,92.0345,268.0791,-0.00012353,-2.253e-05,0.0,0 STARLINK-4652,1 53736U 22107AN  23105.86026033 -.00002253  00000-0 -12353-3 0  9996,2 53736  53.2155 327.5830 0001252  92.0345 268.0791 15.08834964 34736,6917.896,95.438,540.627,538.895,0.0
53736.0,STARLINK-4652,PAYLOAD,2023-04-15 23:49:32,15.08836609,0.0001209,53.2153,326.9886,94.7068,265.4063,-3.0089e-05,-7.67e-06,0.0,0 STARLINK-4652,1 53736U 22107AN  23105.99274053 -.00000767  00000-0 -30089-4 0  9992,2 53736  53.2153 326.9886 0001209  94.7068 265.4063 15.08836609 34754,6917.891,95.438,540.592,538.919,0.0
53736.0,STARLINK-4652,PAYLOAD,2023-04-16 20:29:34,15.08840679,0.0001193,53.2147,323.1238,111.405,248.7069,0.00057812,8.925e-05,0.0,0 STARLINK-4652,1 53736U 22107AN  23106.85386626  .00008925  00000-0  57812-3 0  9992,2 53736  53.2147 323.1238 0001193 111.4050 248.7069 15.08840679 34883,6917.878,95.438,540.569,538.918,0.0
53736.0,STARLINK-4652,PAYLOAD,2023-04-16 23:40:20,15.08847175,0.0001196,53.2144,322.5286,109.914,250.1981,0.00074611,0.00011609,0.0,0 STARLINK-4652,1 53736U 22107AN  23106.98634528  .00011609  00000-0  74611-3 0  9992,2 53736  53.2144 322.5286 0001196 109.9140 250.1981 15.08847175 34902,6917.858,95.437,540.551,538.896,0.0
53736.0,STARLINK-4652,PAYLOAD,2023-04-17 20:20:21,15.08844223,0.0001479,53.2143,318.6623,105.8195,254.296,0.00039844,6.06e-05,0.0,0 STARLINK-4652,1 53736U 22107AN  23107.84746898  .00006060  00000-0  39844-3 0  9996,2 53736  53.2143 318.6623 0001479 105.8195 254.2960 15.08844223 34409,6917.867,95.437,540.756,538.709,0.0
53736.0,STARLINK-4652,PAYLOAD,2023-04-17 21:55:44,15.08844363,0.0001344,53.214,318.3647,103.8146,256.2995,0.00039182,5.954e-05,0.0,0 STARLINK-4652,1 53736U 22107AN  23107.91370877  .00005954  00000-0  39182-3 0  9990,2 53736  53.2140 318.3647 0001344 103.8146 256.2995 15.08844363 35040,6917.867,95.437,540.662,538.802,0.0
53736.0,STARLINK-4652,PAYLOAD,2023-04-18 18:35:45,15.08842002,0.0001222,53.215,314.4983,125.6623,234.4483,0.00030292,4.537e-05,0.0,0 STARLINK-4652,1 53736U 22107AN  23108.77483026  .00004537  00000-0  30292-3 0  9995,2 53736  53.2150 314.4983 0001222 125.6623 234.4483 15.08842002 35170,6917.874,95.437,540.585,538.894,0.0
53736.0,STARLINK-4652,PAYLOAD,2023-04-18 23:21:54,15.0884323,0.0001356,53.2156,313.6043,106.7848,253.3293,0.00038661,5.871e-05,0.0,0 STARLINK-4652,1 53736U 22107AN  23108.97355141  .00005871  00000-0  38661-3 0  9993,2 53736  53.2156 313.6043 0001356 106.7848 253.3293 15.08843230 35208,6917.871,95.437,540.674,538.797,0.0
53736.0,STARLINK-4652,PAYLOAD,2023-04-19 16:51:09,15.08848686,0.0001366,53.2157,310.3318,112.1605,247.9532,0.00039287,5.972e-05,0.0,0 STARLINK-4652,1 53736U 22107AN  23109.70218914  .00005972  00000-0  39287-3 0  9998,2 53736  53.2157 310.3318 0001366 112.1605 247.9532 15.08848686 35318,6917.854,95.437,540.664,538.774,0.0
53736.0,STARLINK-4652,PAYLOAD,2023-04-20 13:31:09,15.08842838,0.0001354,53.2159,306.466,101.5712,258.5432,0.0001076,1.425e-05,0.0,0 STARLINK-4652,1 53736U 22107AN  23110.56330928  .00001425  00000-0  10760-3 0  9998,2 53736  53.2159 306.4660 0001354 101.5712 258.5432 15.08842838 35448,6917.872,95.437,540.673,538.8,0.0
53736.0,STARLINK-4652,PAYLOAD,2023-04-20 19:52:42,15.08844336,0.0001465,53.2157,305.2775,86.9264,273.1896,0.00012484,1.7e-05,0.0,0 STARLINK-4652,1 53736U 22107AN  23110.82826936  .00001700  00000-0  12484-3 0  9997,2 53736  53.2157 305.2775 0001465  86.9264 273.1896 15.08844336 35487,6917.867,95.437,540.746,538.719,0.0
53736.0,STARLINK-4652,PAYLOAD,2023-04-21 13:21:57,15.08843803,0.0001371,53.2141,302.0104,97.7614,262.3534,3.5517e-05,2.77e-06,0.0,0 STARLINK-4652,1 53736U 22107AN  23111.55691058  .00000277  00000-0  35517-4 0  9994,2 53736  53.2141 302.0104 0001371  97.7614 262.3534 15.08843803 35595,6917.869,95.437,540.682,538.785,0.0
53736.0,STARLINK-4652,PAYLOAD,2023-04-21 19:43:29,15.08845273,9.3e-05,53.2142,300.819,85.7926,274.3173,0.0001318,1.811e-05,0.0,0 STARLINK-4652,1 53736U 22107AN  23111.82186816  .00001811  00000-0  13180-3 0  9991,2 53736  53.2142 300.8190 0000930  85.7926 274.3173 15.08845273 35001,6917.864,95.437,540.373,539.086,0.0
53736.0,STARLINK-4652,PAYLOAD,2023-04-22 13:12:44,15.088382,0.000116,53.2137,297.5479,86.7119,273.4006,8.6982e-05,1.097e-05,0.0,0 STARLINK-4652,1 53736U 22107AN  23112.55051288  .00001097  00000-0  86982-4 0  9993,2 53736  53.2137 297.5479 0001160  86.7119 273.4006 15.08838200 35117,6917.886,95.438,540.553,538.948,0.0
53736.0,STARLINK-4652,PAYLOAD,2023-04-23 05:06:35,15.08838499,0.0001176,53.2142,294.5758,88.8262,271.2865,9.3174e-05,1.195e-05,0.0,0 STARLINK-4652,1 53736U 22107AN  23113.21291504  .00001195  00000-0  93174-4 0  9994,2 53736  53.2142 294.5758 0001176  88.8262 271.2865 15.08838499 35848,6917.885,95.438,540.564,538.936,0.0
53736.0,STARLINK-4652,PAYLOAD,2023-04-24 11:18:54,15.08868794,0.0001608,53.2168,288.9251,94.4378,265.6798,0.00066816,0.0001037,0.0,0 STARLINK-4652,1 53736U 22107AN  23114.47146480  .00010370  00000-0  66816-3 0  9992,2 53736  53.2168 288.9251 0001608  94.4378 265.6798 15.08868794 36037,6917.792,95.436,540.77,538.545,0.0
53736.0,STARLINK-4652,PAYLOAD,2023-04-24 17:40:26,15.0888875,0.0001193,53.2152,287.7363,83.9842,276.1286,0.0012089,0.0001903,0.0,0 STARLINK-4652,1 53736U 22107AN  23114.73641808  .00019030  00000-0  12089-2 0  9999,2 53736  53.2152 287.7363 0001193  83.9842 276.1286 15.08888750 35446,6917.731,95.434,540.422,538.771,0.0
53736.0,STARLINK-4652,PAYLOAD,2023-04-25 04:48:09,15.08834388,0.0001893,53.2156,285.6563,57.5598,302.5577,-0.00050394,-8.298e-05,0.0,0 STARLINK-4652,1 53736U 22107AN  23115.20010896 -.00008298  00000-0 -50394-3 0  9997,2 53736  53.2156 285.6563 0001893  57.5598 302.5577 15.08834388 35514,6917.898,95.438,541.072,538.453,0.0
53736.0,STARLINK-4652,PAYLOAD,2023-04-25 11:09:42,15.08800224,0.0002084,53.2134,284.465,64.9981,295.1228,-0.0013965,-0.00022421,0.0,0 STARLINK-4652,1 53736U 22107AN  23115.46508003 -.00022421  00000-0 -13965-2 0  9993,2 53736  53.2134 284.4650 0002084  64.9981 295.1228 15.08800224 35551,6918.002,95.44,541.309,538.425,0.0
53736.0,STARLINK-4652,PAYLOAD,2023-04-26 11:00:31,15.08833554,0.0001383,53.2145,280.005,52.8534,307.2584,0.0018897,0.00029909,0.0,0 STARLINK-4652,1 53736U 22107AN  23116.45870191  .00029909  00000-0  18897-2 0  9998,2 53736  53.2145 280.0050 0001383  52.8534 307.2584 15.08833554 36339,6917.9,95.438,540.722,538.808,0.0
53736.0,STARLINK-4652,PAYLOAD,2023-04-26 17:22:03,15.08852721,0.000134,53.2138,278.815,58.1233,301.9889,0.0013526,0.00021312,0.0,0 STARLINK-4652,1 53736U 22107AN  23116.72365724  .00021312  00000-0  13526-2 0  9993,2 53736  53.2138 278.8150 0001340  58.1233 301.9889 15.08852721 36375,6917.842,95.437,540.633,538.78,0.0
53736.0,STARLINK-4652,PAYLOAD,2023-04-27 10:51:17,15.0886648,0.0001332,53.2137,275.5445,53.0131,307.0983,0.00062961,9.754e-05,0.0,0 STARLINK-4652,1 53736U 22107AN  23117.45228631  .00009754  00000-0  62961-3 0  9993,2 53736  53.2137 275.5445 0001332  53.0131 307.0983 15.08866480 36488,6917.799,95.436,540.586,538.743,0.0
53736.0,STARLINK-4652,PAYLOAD,2023-04-27 14:02:03,15.08870333,0.0001337,53.2139,274.9492,55.6483,304.4636,0.00067046,0.00010407,0.0,0 STARLINK-4652,1 53736U 22107AN  23117.58476342  .00010407  00000-0  67046-3 0  9997,2 53736  53.2139 274.9492 0001337  55.6483 304.4636 15.08870333 35878,6917.788,95.436,540.578,538.728,0.0
53736.0,STARLINK-4652,PAYLOAD,2023-04-28 10:42:03,15.08856219,0.0002218,53.212,271.0793,95.1439,264.9806,0.00053942,8.311e-05,0.0,0 STARLINK-4652,1 53736U 22107AN  23118.44587855  .00008311  00000-0  53942-3 0  9996,2 53736  53.2120 271.0793 0002218  95.1439 264.9806 15.08856219 36001,6917.831,95.437,541.23,538.161,0.0
53736.0,STARLINK-4652,PAYLOAD,2023-04-29 02:35:55,15.08841589,0.0001692,53.2119,268.1098,78.9854,281.1328,-0.00013151,-2.381e-05,0.0,0 STARLINK-4652,1 53736U 22107AN  23119.10828022 -.00002381  00000-0 -13151-3 0  9995,2 53736  53.2119 268.1098 0001692  78.9854 281.1328 15.08841589 36104,6917.876,95.437,540.911,538.57,0.0
53736.0,STARLINK-4652,PAYLOAD,2023-04-29 13:43:37,15.08840363,0.000145,53.2135,266.0268,77.2555,282.8599,-9.6312e-05,-1.82e-05,0.0,0 STARLINK-4652,1 53736U 22107AN  23119.57195864 -.00001820  00000-0 -96312-4 0  9995,2 53736  53.2135 266.0268 0001450  77.2555 282.8599 15.08840363 36804,6917.879,95.438,540.747,538.741,0.0
53736.0,STARLINK-4652,PAYLOAD,2023-04-29 20:05:09,15.08849934,0.0001252,53.2149,264.8365,85.3737,274.7398,-2.6381e-05,-7.08e-06,0.0,0 STARLINK-4652,1 53736U 22107AN  23119.83691312 -.00000708  00000-0 -26381-4 0  9996,2 53736  53.2149 264.8365 0001252  85.3737 274.7398 15.08849934 36210,6917.85,95.437,540.581,538.849,0.0
53736.0,STARLINK-4652,PAYLOAD,2023-04-30 13:34:24,15.08841733,0.0001468,53.2147,261.5652,101.4283,258.6874,5.452e-05,5.8e-06,0.0,0 STARLINK-4652,1 53736U 22107AN  23120.56555883  .00000580  00000-0  54520-4 0  9992,2 53736  53.2147 261.5652 0001468 101.4283 258.6874 15.08841733 36956,6917.875,95.437,540.756,538.725,0.0
